{
  "type": "FeatureCollection",
  "features": [
    {
      "type": "Feature",
      "properties": {
        "norad_id": 29268,
        "name": "ARIRANG-2 (KOMPSAT-2)",
        "group": "resource",
        "lat": 13.379309351577637,
        "lon": -3.3104190327345258,
        "alt_km": 687.5909820191882,
        "timestamp": "2025-12-12T07:43:20.160076+00:00",
        "meta_object_name": "ARIRANG-2 (KOMPSAT-2)",
        "meta_object_id": "2006-031A",
        "meta_epoch": "2025-12-12T01:07:33.547584",
        "meta_mean_motion": 14.64493096,
        "meta_eccentricity": 0.00135648,
        "meta_inclination": 97.8263,
        "meta_ra_of_asc_node": 174.5535,
        "meta_arg_of_pericenter": 311.6954,
        "meta_mean_anomaly": 206.6136,
        "meta_ephemeris_type": 0,
        "meta_classification_type": "U",
        "meta_norad_cat_id": 29268,
        "meta_element_set_no": 999,
        "meta_rev_at_epoch": 3408,
        "meta_bstar": 0.00015771439,
        "meta_mean_motion_dot": 7.91e-06,
        "meta_mean_motion_ddot": 0,
        "tle_line1": "1 29268U 06031A   25346.04691606  .00000791  00000+0  15771-3 0  9999",
        "tle_line2": "2 29268  97.8263 174.5535 0013564 311.6954 206.6136 14.64493096 34087"
      },
      "geometry": {
        "type": "Point",
        "coordinates": [
          -3.3104190327345258,
          13.379309351577637
        ]
      }
    },
    {
      "type": "Feature",
      "properties": {
        "norad_id": 29709,
        "name": "LAPAN-TUBSAT",
        "group": "resource",
        "lat": 67.69478481651974,
        "lon": -43.91348703386171,
        "alt_km": 595.4074133334507,
        "timestamp": "2025-12-12T07:43:20.160087+00:00",
        "meta_object_name": "LAPAN-TUBSAT",
        "meta_object_id": "2007-001A",
        "meta_epoch": "2025-12-11T23:19:50.251296",
        "meta_mean_motion": 14.85667405,
        "meta_eccentricity": 0.00136461,
        "meta_inclination": 98.1261,
        "meta_ra_of_asc_node": 336.1126,
        "meta_arg_of_pericenter": 76.1652,
        "meta_mean_anomaly": 284.1079,
        "meta_ephemeris_type": 0,
        "meta_classification_type": "U",
        "meta_norad_cat_id": 29709,
        "meta_element_set_no": 999,
        "meta_rev_at_epoch": 2335,
        "meta_bstar": 9.0401816e-05,
        "meta_mean_motion_dot": 7.27e-06,
        "meta_mean_motion_ddot": 0,
        "tle_line1": "1 29709U 07001A   25345.97210939  .00000727  00000+0  90402-4 0  9998",
        "tle_line2": "2 29709  98.1261 336.1126 0013646  76.1652 284.1079 14.85667405 23355"
      },
      "geometry": {
        "type": "Point",
        "coordinates": [
          -43.91348703386171,
          67.69478481651974
        ]
      }
    },
    {
      "type": "Feature",
      "properties": {
        "norad_id": 31113,
        "name": "HAIYANG-1B",
        "group": "resource",
        "lat": 36.08915185022978,
        "lon": -35.51461410755923,
        "alt_km": 775.7462591523408,
        "timestamp": "2025-12-12T07:43:20.160098+00:00",
        "meta_object_name": "HAIYANG-1B",
        "meta_object_id": "2007-010A",
        "meta_epoch": "2025-12-11T23:09:42.348672",
        "meta_mean_motion": 14.30964631,
        "meta_eccentricity": 0.00142872,
        "meta_inclination": 98.3314,
        "meta_ra_of_asc_node": 330.2752,
        "meta_arg_of_pericenter": 40.1135,
        "meta_mean_anomaly": 320.11,
        "meta_ephemeris_type": 0,
        "meta_classification_type": "U",
        "meta_norad_cat_id": 31113,
        "meta_element_set_no": 999,
        "meta_rev_at_epoch": 97385,
        "meta_bstar": 9.6516912e-05,
        "meta_mean_motion_dot": 2.12e-06,
        "meta_mean_motion_ddot": 0,
        "tle_line1": "1 31113U 07010A   25345.96507348  .00000212  00000+0  96517-4 0  9994",
        "tle_line2": "2 31113  98.3314 330.2752 0014287  40.1135 320.1100 14.30964631973853"
      },
      "geometry": {
        "type": "Point",
        "coordinates": [
          -35.51461410755923,
          36.08915185022978
        ]
      }
    },
    {
      "type": "Feature",
      "properties": {
        "norad_id": 31598,
        "name": "COSMO-SKYMED 1",
        "group": "resource",
        "lat": 9.888503824688911,
        "lon": 170.3339134375552,
        "alt_km": 581.4992727523559,
        "timestamp": "2025-12-12T07:43:20.160109+00:00",
        "meta_object_name": "COSMO-SKYMED 1",
        "meta_object_id": "2007-023A",
        "meta_epoch": "2025-12-11T23:39:00.375264",
        "meta_mean_motion": 14.95754646,
        "meta_eccentricity": 0.00011431,
        "meta_inclination": 97.8835,
        "meta_ra_of_asc_node": 171.3796,
        "meta_arg_of_pericenter": 87.7891,
        "meta_mean_anomaly": 272.346,
        "meta_ephemeris_type": 0,
        "meta_classification_type": "U",
        "meta_norad_cat_id": 31598,
        "meta_element_set_no": 999,
        "meta_rev_at_epoch": 179,
        "meta_bstar": 0.00054541862,
        "meta_mean_motion_dot": 6.022e-05,
        "meta_mean_motion_ddot": 0,
        "tle_line1": "1 31598U 07023A   25345.98542101  .00006022  00000+0  54542-3 0  9999",
        "tle_line2": "2 31598  97.8835 171.3796 0001143  87.7891 272.3460 14.95754646  1793"
      },
      "geometry": {
        "type": "Point",
        "coordinates": [
          170.3339134375552,
          9.888503824688911
        ]
      }
    },
    {
      "type": "Feature",
      "properties": {
        "norad_id": 31698,
        "name": "TERRASAR-X",
        "group": "resource",
        "lat": -9.175166300990504,
        "lon": -7.081120503049978,
        "alt_km": 512.7868529010439,
        "timestamp": "2025-12-12T07:43:20.160120+00:00",
        "meta_object_name": "TERRASAR-X",
        "meta_object_id": "2007-026A",
        "meta_epoch": "2025-12-11T11:12:43.517376",
        "meta_mean_motion": 15.19155336,
        "meta_eccentricity": 0.00018891,
        "meta_inclination": 97.4455,
        "meta_ra_of_asc_node": 350.8663,
        "meta_arg_of_pericenter": 92.9175,
        "meta_mean_anomaly": 267.2276,
        "meta_ephemeris_type": 0,
        "meta_classification_type": "U",
        "meta_norad_cat_id": 31698,
        "meta_element_set_no": 999,
        "meta_rev_at_epoch": 2472,
        "meta_bstar": 9.3381918e-05,
        "meta_mean_motion_dot": 1.895e-05,
        "meta_mean_motion_ddot": 0,
        "tle_line1": "1 31698U 07026A   25345.46717034  .00001895  00000+0  93382-4 0  9994",
        "tle_line2": "2 31698  97.4455 350.8663 0001889  92.9175 267.2276 15.19155336 24729"
      },
      "geometry": {
        "type": "Point",
        "coordinates": [
          -7.081120503049978,
          -9.175166300990504
        ]
      }
    },
    {
      "type": "Feature",
      "properties": {
        "norad_id": 32060,
        "name": "WORLDVIEW-1 (WV-1)",
        "group": "resource",
        "lat": -16.135234152121015,
        "lon": 105.95823602870728,
        "alt_km": 496.9588388073189,
        "timestamp": "2025-12-12T07:43:20.160131+00:00",
        "meta_object_name": "WORLDVIEW-1 (WV-1)",
        "meta_object_id": "2007-041A",
        "meta_epoch": "2025-12-11T20:46:03.519264",
        "meta_mean_motion": 15.24666793,
        "meta_eccentricity": 7.755e-05,
        "meta_inclination": 97.3834,
        "meta_ra_of_asc_node": 103.3584,
        "meta_arg_of_pericenter": 106.7244,
        "meta_mean_anomaly": 253.4079,
        "meta_ephemeris_type": 0,
        "meta_classification_type": "U",
        "meta_norad_cat_id": 32060,
        "meta_element_set_no": 999,
        "meta_rev_at_epoch": 1434,
        "meta_bstar": 0.00050526601,
        "meta_mean_motion_dot": 0.00012422,
        "meta_mean_motion_ddot": 0,
        "tle_line1": "1 32060U 07041A   25345.86531851  .00012422  00000+0  50527-3 0  9991",
        "tle_line2": "2 32060  97.3834 103.3584 0000775 106.7244 253.4079 15.24666793 14345"
      },
      "geometry": {
        "type": "Point",
        "coordinates": [
          105.95823602870728,
          -16.135234152121015
        ]
      }
    },
    {
      "type": "Feature",
      "properties": {
        "norad_id": 32289,
        "name": "YAOGAN-3",
        "group": "resource",
        "lat": -47.87209580440889,
        "lon": -175.80867315482817,
        "alt_km": 606.020752333483,
        "timestamp": "2025-12-12T07:43:20.160142+00:00",
        "meta_object_name": "YAOGAN-3",
        "meta_object_id": "2007-055A",
        "meta_epoch": "2025-12-12T00:15:09.927648",
        "meta_mean_motion": 14.8985306,
        "meta_eccentricity": 0.00012388,
        "meta_inclination": 97.8367,
        "meta_ra_of_asc_node": 12.6419,
        "meta_arg_of_pericenter": 74.5929,
        "meta_mean_anomaly": 285.5425,
        "meta_ephemeris_type": 0,
        "meta_classification_type": "U",
        "meta_norad_cat_id": 32289,
        "meta_element_set_no": 999,
        "meta_rev_at_epoch": 97798,
        "meta_bstar": 0.00051355768,
        "meta_mean_motion_dot": 4.88e-05,
        "meta_mean_motion_ddot": 0,
        "tle_line1": "1 32289U 07055A   25346.01053157  .00004880  00000+0  51356-3 0  9995",
        "tle_line2": "2 32289  97.8367  12.6419 0001238  74.5929 285.5425 14.89853060977984"
      },
      "geometry": {
        "type": "Point",
        "coordinates": [
          -175.80867315482817,
          -47.87209580440889
        ]
      }
    }
  ]
}